STARLINK-31452          
1 59527U 24073S   26003.24638892 -.00000783  00000+0 -18951-4 0  9994
2 59527  43.0022 327.8928 0001108 263.1137  96.9588 15.27576190 96163
STARLINK-31513          
1 59529U 24073U   26003.24430770  .00003996  00000+0  15473-3 0  9993
2 59529  42.9962 324.3814 0001303  58.9074 301.1905 15.27565522 96205
STARLINK-31392          
1 59530U 24073V   26003.29378085  .00006740  00000+0  25416-3 0  9998
2 59530  43.0038 327.3824 0001427 265.1136  94.9553 15.27585955 96179
STARLINK-31619          
1 59531U 24073W   26003.21427361 -.00003736  00000+0 -12636-3 0  9997
2 59531  43.0044 327.6504 0001333 264.2313  95.8387 15.27565870 97280
STARLINK-31509          
1 59533U 24073Y   26003.25409949  .00001490  00000+0  63626-4 0  9994
2 59533  42.9980 327.9630 0000323 275.2107  84.8708 15.27583455 96163
STARLINK-31734          
1 59534U 24074A   26002.99838029  .00001228  00000+0  54138-4 0  9998
2 59534  43.0027 343.6161 0001184 198.7179 161.3629 15.27580949 96096
STARLINK-31738          
1 59535U 24074B   26003.34231856  .00001997  00000+0  82106-4 0  9993
2 59535  43.0007 348.7404 0001583 177.1662 182.9199 15.27574829 96060
STARLINK-31721          
1 59536U 24074C   26003.01749140  .00003181  00000+0  12512-3 0  9998
2 59536  43.0033 354.1469 0000833 198.4390 161.6432 15.27565730 95977
STARLINK-31737          
1 59537U 24074D   26003.03162516  .00001650  00000+0  69477-4 0  9999
2 59537  43.0036 354.2531 0001400 260.3132  99.7561 15.27577773 95970
STARLINK-31725          
1 59538U 24074E   26003.36379264  .00005880  00000+0  22280-3 0  9995
2 59538  43.0004 341.7836 0000708 268.8014  91.2757 15.27613428 96149
STARLINK-31539          
1 59539U 24074F   26003.23934512  .00001781  00000+0  74232-4 0  9996
2 59539  42.9996 353.2274 0001281 278.8361  81.2345 15.27584151 96002
STARLINK-31397          
1 59540U 24074G   26003.31886759  .00000697  00000+0  34850-4 0  9993
2 59540  43.0014 352.9701 0000854 274.6476  85.4278 15.27580446 96019
STARLINK-31481          
1 59541U 24074H   26003.00335492 -.00000022  00000+0  87319-5 0  9995
2 59541  43.0034 354.0396 0000859 229.5396 130.5381 15.27573555 95974
STARLINK-31540          
1 59542U 24074J   26003.02134227  .00001588  00000+0  67213-4 0  9998
2 59542  43.0019 354.1738 0001233 242.0910 117.9817 15.27580887 95977
STARLINK-31574          
1 59543U 24074K   26003.24319884  .00003927  00000+0  15212-3 0  9997
2 59543  43.0022 353.2600 0001386 258.0231 102.0465 15.27588651 96008
STARLINK-31556          
1 59544U 24074L   26003.24575214  .00003657  00000+0  14231-3 0  9999
2 59544  43.0045 353.2855 0001567 274.9427  85.1245 15.27593153 96001
STARLINK-31582          
1 59545U 24074M   26003.32272418  .00000163  00000+0  15450-4 0  9993
2 59545  43.0014 352.9969 0000821 263.6771  96.3987 15.27580648 96012
