[{"OBJECT_NAME":"STARLINK-31452","OBJECT_ID":"2024-073S","EPOCH":"2026-01-03T05:54:48.002688","MEAN_MOTION":15.2757619,"ECCENTRICITY":0.0001108,"INCLINATION":43.0022,"RA_OF_ASC_NODE":327.8928,"ARG_OF_PERICENTER":263.1137,"MEAN_ANOMALY":96.9588,"EPHEMERIS_TYPE":0,"CLASSIFICATION_TYPE":"U","NORAD_CAT_ID":59527,"ELEMENT_SET_NO":999,"REV_AT_EPOCH":9616,"BSTAR":-1.8951e-5,"MEAN_MOTION_DOT":-7.83e-6,"MEAN_MOTION_DDOT":0},{"OBJECT_NAME":"STARLINK-31513","OBJECT_ID":"2024-073U","EPOCH":"2026-01-03T05:51:48.185280","MEAN_MOTION":15.27565522,"ECCENTRICITY":0.0001303,"INCLINATION":42.9962,"RA_OF_ASC_NODE":324.3814,"ARG_OF_PERICENTER":58.9074,"MEAN_ANOMALY":301.1905,"EPHEMERIS_TYPE":0,"CLASSIFICATION_TYPE":"U","NORAD_CAT_ID":59529,"ELEMENT_SET_NO":999,"REV_AT_EPOCH":9620,"BSTAR":0.00015473,"MEAN_MOTION_DOT":3.996e-5,"MEAN_MOTION_DDOT":0},{"OBJECT_NAME":"STARLINK-31392","OBJECT_ID":"2024-073V","EPOCH":"2026-01-03T07:03:02.665440","MEAN_MOTION":15.27585955,"ECCENTRICITY":0.0001427,"INCLINATION":43.0038,"RA_OF_ASC_NODE":327.3824,"ARG_OF_PERICENTER":265.1136,"MEAN_ANOMALY":94.9553,"EPHEMERIS_TYPE":0,"CLASSIFICATION_TYPE":"U","NORAD_CAT_ID":59530,"ELEMENT_SET_NO":999,"REV_AT_EPOCH":9617,"BSTAR":0.00025416,"MEAN_MOTION_DOT":6.74e-5,"MEAN_MOTION_DDOT":0},{"OBJECT_NAME":"STARLINK-31619","OBJECT_ID":"2024-073W","EPOCH":"2026-01-03T05:08:33.239904","MEAN_MOTION":15.2756587,"ECCENTRICITY":0.0001333,"INCLINATION":43.0044,"RA_OF_ASC_NODE":327.6504,"ARG_OF_PERICENTER":264.2313,"MEAN_ANOMALY":95.8387,"EPHEMERIS_TYPE":0,"CLASSIFICATION_TYPE":"U","NORAD_CAT_ID":59531,"ELEMENT_SET_NO":999,"REV_AT_EPOCH":9728,"BSTAR":-0.00012636,"MEAN_MOTION_DOT":-3.736e-5,"MEAN_MOTION_DDOT":0},{"OBJECT_NAME":"STARLINK-31509","OBJECT_ID":"2024-073Y","EPOCH":"2026-01-03T06:05:54.195936","MEAN_MOTION":15.27583455,"ECCENTRICITY":3.23e-5,"INCLINATION":42.998,"RA_OF_ASC_NODE":327.963,"ARG_OF_PERICENTER":275.2107,"MEAN_ANOMALY":84.8708,"EPHEMERIS_TYPE":0,"CLASSIFICATION_TYPE":"U","NORAD_CAT_ID":59533,"ELEMENT_SET_NO":999,"REV_AT_EPOCH":9616,"BSTAR":6.3626e-5,"MEAN_MOTION_DOT":1.49e-5,"MEAN_MOTION_DDOT":0},{"OBJECT_NAME":"STARLINK-31734","OBJECT_ID":"2024-074A","EPOCH":"2026-01-02T23:57:40.057056","MEAN_MOTION":15.27580949,"ECCENTRICITY":0.00011845,"INCLINATION":43.0027,"RA_OF_ASC_NODE":343.6161,"ARG_OF_PERICENTER":198.7179,"MEAN_ANOMALY":161.3629,"EPHEMERIS_TYPE":0,"CLASSIFICATION_TYPE":"U","NORAD_CAT_ID":59534,"ELEMENT_SET_NO":999,"REV_AT_EPOCH":9609,"BSTAR":5.4137638e-5,"MEAN_MOTION_DOT":1.228e-5,"MEAN_MOTION_DDOT":0},{"OBJECT_NAME":"STARLINK-31738","OBJECT_ID":"2024-074B","EPOCH":"2026-01-03T08:12:56.323584","MEAN_MOTION":15.27574829,"ECCENTRICITY":0.0001583,"INCLINATION":43.0007,"RA_OF_ASC_NODE":348.7404,"ARG_OF_PERICENTER":177.1662,"MEAN_ANOMALY":182.9199,"EPHEMERIS_TYPE":0,"CLASSIFICATION_TYPE":"U","NORAD_CAT_ID":59535,"ELEMENT_SET_NO":999,"REV_AT_EPOCH":9606,"BSTAR":8.2106e-5,"MEAN_MOTION_DOT":1.997e-5,"MEAN_MOTION_DDOT":0},{"OBJECT_NAME":"STARLINK-31721","OBJECT_ID":"2024-074C","EPOCH":"2026-01-03T00:25:11.256960","MEAN_MOTION":15.2756573,"ECCENTRICITY":8.334e-5,"INCLINATION":43.0033,"RA_OF_ASC_NODE":354.1469,"ARG_OF_PERICENTER":198.439,"MEAN_ANOMALY":161.6432,"EPHEMERIS_TYPE":0,"CLASSIFICATION_TYPE":"U","NORAD_CAT_ID":59536,"ELEMENT_SET_NO":999,"REV_AT_EPOCH":9597,"BSTAR":0.00012511828,"MEAN_MOTION_DOT":3.181e-5,"MEAN_MOTION_DDOT":0},{"OBJECT_NAME":"STARLINK-31737","OBJECT_ID":"2024-074D","EPOCH":"2026-01-03T00:45:32.413824","MEAN_MOTION":15.27577773,"ECCENTRICITY":0.00014006,"INCLINATION":43.0036,"RA_OF_ASC_NODE":354.2531,"ARG_OF_PERICENTER":260.3132,"MEAN_ANOMALY":99.7561,"EPHEMERIS_TYPE":0,"CLASSIFICATION_TYPE":"U","NORAD_CAT_ID":59537,"ELEMENT_SET_NO":999,"REV_AT_EPOCH":9597,"BSTAR":6.9476528e-5,"MEAN_MOTION_DOT":1.65e-5,"MEAN_MOTION_DDOT":0},{"OBJECT_NAME":"STARLINK-31725","OBJECT_ID":"2024-074E","EPOCH":"2026-01-03T08:43:51.684096","MEAN_MOTION":15.27613428,"ECCENTRICITY":7.08e-5,"INCLINATION":43.0004,"RA_OF_ASC_NODE":341.7836,"ARG_OF_PERICENTER":268.8014,"MEAN_ANOMALY":91.2757,"EPHEMERIS_TYPE":0,"CLASSIFICATION_TYPE":"U","NORAD_CAT_ID":59538,"ELEMENT_SET_NO":999,"REV_AT_EPOCH":9614,"BSTAR":0.0002228,"MEAN_MOTION_DOT":5.88e-5,"MEAN_MOTION_DDOT":0},{"OBJECT_NAME":"STARLINK-31539","OBJECT_ID":"2024-074F","EPOCH":"2026-01-03T05:44:39.418368","MEAN_MOTION":15.27584151,"ECCENTRICITY":0.0001281,"INCLINATION":42.9996,"RA_OF_ASC_NODE":353.2274,"ARG_OF_PERICENTER":278.8361,"MEAN_ANOMALY":81.2345,"EPHEMERIS_TYPE":0,"CLASSIFICATION_TYPE":"U","NORAD_CAT_ID":59539,"ELEMENT_SET_NO":999,"REV_AT_EPOCH":9600,"BSTAR":7.4232e-5,"MEAN_MOTION_DOT":1.781e-5,"MEAN_MOTION_DDOT":0},{"OBJECT_NAME":"STARLINK-31397","OBJECT_ID":"2024-074G","EPOCH":"2026-01-03T07:39:10.159776","MEAN_MOTION":15.27580446,"ECCENTRICITY":8.54e-5,"INCLINATION":43.0014,"RA_OF_ASC_NODE":352.9701,"ARG_OF_PERICENTER":274.6476,"MEAN_ANOMALY":85.4278,"EPHEMERIS_TYPE":0,"CLASSIFICATION_TYPE":"U","NORAD_CAT_ID":59540,"ELEMENT_SET_NO":999,"REV_AT_EPOCH":9601,"BSTAR":3.485e-5,"MEAN_MOTION_DOT":6.97e-6,"MEAN_MOTION_DDOT":0},{"OBJECT_NAME":"STARLINK-31481","OBJECT_ID":"2024-074H","EPOCH":"2026-01-03T00:04:49.865088","MEAN_MOTION":15.27573555,"ECCENTRICITY":8.592e-5,"INCLINATION":43.0034,"RA_OF_ASC_NODE":354.0396,"ARG_OF_PERICENTER":229.5396,"MEAN_ANOMALY":130.5381,"EPHEMERIS_TYPE":0,"CLASSIFICATION_TYPE":"U","NORAD_CAT_ID":59541,"ELEMENT_SET_NO":999,"REV_AT_EPOCH":9597,"BSTAR":8.731946e-6,"MEAN_MOTION_DOT":-2.2e-7,"MEAN_MOTION_DDOT":0},{"OBJECT_NAME":"STARLINK-31540","OBJECT_ID":"2024-074J","EPOCH":"2026-01-03T00:30:43.972128","MEAN_MOTION":15.27580887,"ECCENTRICITY":0.0001233,"INCLINATION":43.0019,"RA_OF_ASC_NODE":354.1738,"ARG_OF_PERICENTER":242.091,"MEAN_ANOMALY":117.9817,"EPHEMERIS_TYPE":0,"CLASSIFICATION_TYPE":"U","NORAD_CAT_ID":59542,"ELEMENT_SET_NO":999,"REV_AT_EPOCH":9597,"BSTAR":6.7212652e-5,"MEAN_MOTION_DOT":1.588e-5,"MEAN_MOTION_DDOT":0},{"OBJECT_NAME":"STARLINK-31574","OBJECT_ID":"2024-074K","EPOCH":"2026-01-03T05:50:12.379776","MEAN_MOTION":15.27588651,"ECCENTRICITY":0.0001386,"INCLINATION":43.0022,"RA_OF_ASC_NODE":353.26,"ARG_OF_PERICENTER":258.0231,"MEAN_ANOMALY":102.0465,"EPHEMERIS_TYPE":0,"CLASSIFICATION_TYPE":"U","NORAD_CAT_ID":59543,"ELEMENT_SET_NO":999,"REV_AT_EPOCH":9600,"BSTAR":0.00015212,"MEAN_MOTION_DOT":3.927e-5,"MEAN_MOTION_DDOT":0},{"OBJECT_NAME":"STARLINK-31556","OBJECT_ID":"2024-074L","EPOCH":"2026-01-03T05:53:52.984896","MEAN_MOTION":15.27593153,"ECCENTRICITY":0.0001567,"INCLINATION":43.0045,"RA_OF_ASC_NODE":353.2855,"ARG_OF_PERICENTER":274.9427,"MEAN_ANOMALY":85.1245,"EPHEMERIS_TYPE":0,"CLASSIFICATION_TYPE":"U","NORAD_CAT_ID":59544,"ELEMENT_SET_NO":999,"REV_AT_EPOCH":9600,"BSTAR":0.00014231,"MEAN_MOTION_DOT":3.657e-5,"MEAN_MOTION_DDOT":0},{"OBJECT_NAME":"STARLINK-31582","OBJECT_ID":"2024-074M","EPOCH":"2026-01-03T07:44:43.369152","MEAN_MOTION":15.27580648,"ECCENTRICITY":8.21e-5,"INCLINATION":43.0014,"RA_OF_ASC_NODE":352.9969,"ARG_OF_PERICENTER":263.6771,"MEAN_ANOMALY":96.3987,"EPHEMERIS_TYPE":0,"CLASSIFICATION_TYPE":"U","NORAD_CAT_ID":59545,"ELEMENT_SET_NO":999,"REV_AT_EPOCH":9601,"BSTAR":1.545e-5,"MEAN_MOTION_DOT":1.63e-6,"MEAN_MOTION_DDOT":0}]
